IRIDIUM 159             
1 43578U 18061K   25303.59803781  .00000020  00000+0 -69160-7 0  9998
2 43578  86.3986 152.6900 0002089  89.3203 270.8233 14.34217740380476
IRIDIUM 180             
1 43922U 19002A   25303.87660561  .00000335  00000+0  11262-3 0  9999
2 43922  86.3928  89.4625 0002235  89.2296 270.9156 14.34217002356121
IRIDIUM 176             
1 43923U 19002B   25303.90391448  .00001611  00000+0  25154-3 0  9992
2 43923  86.6055  89.4281 0001953  75.8881 284.2553 14.72252235365512
IRIDIUM 168             
1 43924U 19002C   25303.94003300  .00001150  00000+0  40357-3 0  9994
2 43924  86.3933  89.5071 0002090  89.8324 270.3111 14.34219408356118
IRIDIUM 173             
1 43925U 19002D   25303.92734826  .00000327  00000+0  10986-3 0  9997
2 43925  86.3930  89.4106 0002155  87.5371 272.6071 14.34218441356096
IRIDIUM 169             
1 43926U 19002E   25303.92686385  .00000192  00000+0  56279-4 0  9990
2 43926  86.4189 121.0603 0002198  56.9557 303.1852 14.38606112357269
IRIDIUM 172             
1 43927U 19002F   25303.85123787  .00000070  00000+0  17849-4 0  9990
2 43927  86.3931  89.4497 0002304  93.0834 267.0625 14.34217947356097
IRIDIUM 175             
1 43928U 19002G   25303.69519483  .00001059  00000+0  16392-3 0  9994
2 43928  86.1532  34.3415 0001624 112.1019 248.0370 14.72250022365475
